{"type": "FeatureCollection", "features": [ {"type": "Feature", "properties": {"norad_id": 34875, "name": "COSMOS 2251 DEB", "group": "cosmos-2251-debris", "lat": -57.62054515197873, "lon": -10.88834509886759, "alt_km": 725.2662725753135, "timestamp": "2025-12-21T05:44:51.982740+00:00", "meta": {"OBJECT_NAME": "COSMOS 2251 DEB", "OBJECT_ID": "1993-036ACN", "EPOCH": "2025-12-19T11:28:39.014112", "MEAN_MOTION": 14.48947014, "ECCENTRICITY": 0.0016196, "INCLINATION": 74.0433, "RA_OF_ASC_NODE": 145.5897, "ARG_OF_PERICENTER": 268.763, "MEAN_ANOMALY": 149.3216, "EPHEMERIS_TYPE": 0, "CLASSIFICATION_TYPE": "U", "NORAD_CAT_ID": 34875, "ELEMENT_SET_NO": 999, "REV_AT_EPOCH": 87853, "BSTAR": 0.00033791, "MEAN_MOTION_DOT": 1.255e-05, "MEAN_MOTION_DDOT": 0}, "tle": {"line1": "1 34875U 93036ACN 25353.47822933  .00001255  00000+0  33791-3 0  9992", "line2": "2 34875  74.0433 145.5897 0016196 268.7630 149.3216 14.48947014878533"}}, "geometry": {"type": "Point", "coordinates": [-10.88834509886759, -57.62054515197873]}}, {"type": "Feature", "properties": {"norad_id": 34878, "name": "COSMOS 2251 DEB", "group": "cosmos-2251-debris", "lat": 47.969019360059676, "lon": 52.44419777243199, "alt_km": 817.7972944845706, "timestamp": "2025-12-21T05:44:51.982749+00:00", "meta": {"OBJECT_NAME": "COSMOS 2251 DEB", "OBJECT_ID": "1993-036ACR", "EPOCH": "2025-12-20T02:51:54.266112", "MEAN_MOTION": 13.44200085, "ECCENTRICITY": 0.04356019, "INCLINATION": 73.965, "RA_OF_ASC_NODE": 35.6157, "ARG_OF_PERICENTER": 17.6827, "MEAN_ANOMALY": 11.8411, "EPHEMERIS_TYPE": 0, "CLASSIFICATION_TYPE": "U", "NORAD_CAT_ID": 34878, "ELEMENT_SET_NO": 999, "REV_AT_EPOCH": 81372, "BSTAR": 0.00054186737, "MEAN_MOTION_DOT": 5.36e-06, "MEAN_MOTION_DDOT": 0}, "tle": {"line1": "1 34878U 93036ACR 25354.11937808  .00000536  00000+0  54187-3 0  9998", "line2": "2 34878  73.9650  35.6157 0435601  17.6827  11.8411 13.44200085813723"}}, "geometry": {"type": "Point", "coordinates": [52.44419777243199, 47.969019360059676]}}, {"type": "Feature", "properties": {"norad_id": 34882, "name": "COSMOS 2251 DEB", "group": "cosmos-2251-debris", "lat": -29.88094543214093, "lon": 38.801544367464274, "alt_km": 725.3620185399459, "timestamp": "2025-12-21T05:44:51.982760+00:00", "meta": {"OBJECT_NAME": "COSMOS 2251 DEB", "OBJECT_ID": "1993-036ACV", "EPOCH": "2025-12-20T00:51:13.406976", "MEAN_MOTION": 14.61609371, "ECCENTRICITY": 0.00831704, "INCLINATION": 74.0454, "RA_OF_ASC_NODE": 211.6418, "ARG_OF_PERICENTER": 336.8506, "MEAN_ANOMALY": 22.892, "EPHEMERIS_TYPE": 0, "CLASSIFICATION_TYPE": "U", "NORAD_CAT_ID": 34882, "ELEMENT_SET_NO": 999, "REV_AT_EPOCH": 88631, "BSTAR": 9.3819034e-05, "MEAN_MOTION_DOT": 4.56e-06, "MEAN_MOTION_DDOT": 0}, "tle": {"line1": "1 34882U 93036ACV 25354.03557184  .00000456  00000+0  93819-4 0  9996", "line2": "2 34882  74.0454 211.6418 0083170 336.8506  22.8920 14.61609371886311"}}, "geometry": {"type": "Point", "coordinates": [38.801544367464274, -29.88094543214093]}}, {"type": "Feature", "properties": {"norad_id": 34883, "name": "COSMOS 2251 DEB", "group": "cosmos-2251-debris", "lat": -42.68616966406382, "lon": 31.739121488820995, "alt_km": 719.456536071295, "timestamp": "2025-12-21T05:44:51.982770+00:00", "meta": {"OBJECT_NAME": "COSMOS 2251 DEB", "OBJECT_ID": "1993-036ACW", "EPOCH": "2025-12-18T13:27:07.209504", "MEAN_MOTION": 14.51672805, "ECCENTRICITY": 0.00951028, "INCLINATION": 74.2022, "RA_OF_ASC_NODE": 51.868, "ARG_OF_PERICENTER": 236.3156, "MEAN_ANOMALY": 122.8912, "EPHEMERIS_TYPE": 0, "CLASSIFICATION_TYPE": "U", "NORAD_CAT_ID": 34883, "ELEMENT_SET_NO": 999, "REV_AT_EPOCH": 86524, "BSTAR": 0.0028915699, "MEAN_MOTION_DOT": 0.00012297, "MEAN_MOTION_DDOT": 0}, "tle": {"line1": "1 34883U 93036ACW 25352.56050011  .00012297  00000+0  28916-2 0  9990", "line2": "2 34883  74.2022  51.8680 0095102 236.3156 122.8912 14.51672805865245"}}, "geometry": {"type": "Point", "coordinates": [31.739121488820995, -42.68616966406382]}}, {"type": "Feature", "properties": {"norad_id": 34884, "name": "COSMOS 2251 DEB", "group": "cosmos-2251-debris", "lat": -10.521763783681957, "lon": 36.65785597204918, "alt_km": 599.5306386649054, "timestamp": "2025-12-21T05:44:51.982780+00:00", "meta": {"OBJECT_NAME": "COSMOS 2251 DEB", "OBJECT_ID": "1993-036ACX", "EPOCH": "2025-12-20T14:14:11.616000", "MEAN_MOTION": 14.9038608, "ECCENTRICITY": 0.0002699, "INCLINATION": 74.0173, "RA_OF_ASC_NODE": 41.0042, "ARG_OF_PERICENTER": 45.569, "MEAN_ANOMALY": 77.4134, "EPHEMERIS_TYPE": 0, "CLASSIFICATION_TYPE": "U", "NORAD_CAT_ID": 34884, "ELEMENT_SET_NO": 999, "REV_AT_EPOCH": 87922, "BSTAR": 0.0013457, "MEAN_MOTION_DOT": 0.00013093, "MEAN_MOTION_DDOT": 0}, "tle": {"line1": "1 34884U 93036ACX 25354.59319000  .00013093  00000+0  13457-2 0  9991", "line2": "2 34884  74.0173  41.0042 0002699  45.5690  77.4134 14.90386080879220"}}, "geometry": {"type": "Point", "coordinates": [36.65785597204918, -10.521763783681957]}}, {"type": "Feature", "properties": {"norad_id": 34885, "name": "COSMOS 2251 DEB", "group": "cosmos-2251-debris", "lat": 46.56105576889467, "lon": -30.58533720944559, "alt_km": 721.7503842076412, "timestamp": "2025-12-21T05:44:51.982790+00:00", "meta": {"OBJECT_NAME": "COSMOS 2251 DEB", "OBJECT_ID": "1993-036ACY", "EPOCH": "2025-12-20T21:27:48.737376", "MEAN_MOTION": 14.51541115, "ECCENTRICITY": 0.00150825, "INCLINATION": 74.0298, "RA_OF_ASC_NODE": 167.6672, "ARG_OF_PERICENTER": 253.0323, "MEAN_ANOMALY": 234.9925, "EPHEMERIS_TYPE": 0, "CLASSIFICATION_TYPE": "U", "NORAD_CAT_ID": 34885, "ELEMENT_SET_NO": 999, "REV_AT_EPOCH": 87597, "BSTAR": 0.0004790259, "MEAN_MOTION_DOT": 1.892e-05, "MEAN_MOTION_DDOT": 0}, "tle": {"line1": "1 34885U 93036ACY 25354.89431409  .00001892  00000+0  47903-3 0  9991", "line2": "2 34885  74.0298 167.6672 0015082 253.0323 234.9925 14.51541115875977"}}, "geometry": {"type": "Point", "coordinates": [-30.58533720944559, 46.56105576889467]}}, {"type": "Feature", "properties": {"norad_id": 34886, "name": "COSMOS 2251 DEB", "group": "cosmos-2251-debris", "lat": 14.50200374667661, "lon": 166.82208435892827, "alt_km": 429.30607680611956, "timestamp": "2025-12-21T05:44:51.982800+00:00", "meta": {"OBJECT_NAME": "COSMOS 2251 DEB", "OBJECT_ID": "1993-036ACZ", "EPOCH": "2025-12-19T05:20:10.106016", "MEAN_MOTION": 15.39455892, "ECCENTRICITY": 0.0031395, "INCLINATION": 73.9504, "RA_OF_ASC_NODE": 166.9286, "ARG_OF_PERICENTER": 349.772, "MEAN_ANOMALY": 10.2844, "EPHEMERIS_TYPE": 0, "CLASSIFICATION_TYPE": "U", "NORAD_CAT_ID": 34886, "ELEMENT_SET_NO": 999, "REV_AT_EPOCH": 63098, "BSTAR": 0.0012728, "MEAN_MOTION_DOT": 0.00051055, "MEAN_MOTION_DDOT": 0}, "tle": {"line1": "1 34886U 93036ACZ 25353.22233919  .00051055  00000+0  12728-2 0  9996", "line2": "2 34886  73.9504 166.9286 0031395 349.7720  10.2844 15.39455892630986"}}, "geometry": {"type": "Point", "coordinates": [166.82208435892827, 14.50200374667661]}}, {"type": "Feature", "properties": {"norad_id": 34907, "name": "COSMOS 2251 DEB", "group": "cosmos-2251-debris", "lat": -1.6513789696643544, "lon": -149.75330471855895, "alt_km": 431.3809872234142, "timestamp": "2025-12-21T05:44:51.982810+00:00", "meta": {"OBJECT_NAME": "COSMOS 2251 DEB", "OBJECT_ID": "1993-036ADC", "EPOCH": "2025-12-20T19:40:06.346560", "MEAN_MOTION": 15.49417071, "ECCENTRICITY": 0.00187266, "INCLINATION": 73.9676, "RA_OF_ASC_NODE": 30.6958, "ARG_OF_PERICENTER": 329.8306, "MEAN_ANOMALY": 30.1826, "EPHEMERIS_TYPE": 0, "CLASSIFICATION_TYPE": "U", "NORAD_CAT_ID": 34907, "ELEMENT_SET_NO": 999, "REV_AT_EPOCH": 88098, "BSTAR": 0.0048777845, "MEAN_MOTION_DOT": 0.00279405, "MEAN_MOTION_DDOT": 0}, "tle": {"line1": "1 34907U 93036ADC 25354.81951790  .00279405  00000+0  48778-2 0  9995", "line2": "2 34907  73.9676  30.6958 0018726 329.8306  30.1826 15.49417071880981"}}, "geometry": {"type": "Point", "coordinates": [-149.75330471855895, -1.6513789696643544]}}, {"type": "Feature", "properties": {"norad_id": 34908, "name": "COSMOS 2251 DEB", "group": "cosmos-2251-debris", "lat": 55.156514057259535, "lon": 163.79486781073243, "alt_km": 766.2287415553137, "timestamp": "2025-12-21T05:44:51.982820+00:00", "meta": {"OBJECT_NAME": "COSMOS 2251 DEB", "OBJECT_ID": "1993-036ADD", "EPOCH": "2025-12-20T07:32:52.101024", "MEAN_MOTION": 14.37418877, "ECCENTRICITY": 0.00404085, "INCLINATION": 74.0578, "RA_OF_ASC_NODE": 9.7367, "ARG_OF_PERICENTER": 23.4856, "MEAN_ANOMALY": 352.7284, "EPHEMERIS_TYPE": 0, "CLASSIFICATION_TYPE": "U", "NORAD_CAT_ID": 34908, "ELEMENT_SET_NO": 999, "REV_AT_EPOCH": 87388, "BSTAR": 0.00037887067, "MEAN_MOTION_DOT": 1.117e-05, "MEAN_MOTION_DDOT": 0}, "tle": {"line1": "1 34908U 93036ADD 25354.31449191  .00001117  00000+0  37887-3 0  9991", "line2": "2 34908  74.0578   9.7367 0040408  23.4856 352.7284 14.37418877873888"}}, "geometry": {"type": "Point", "coordinates": [163.79486781073243, 55.156514057259535]}}, {"type": "Feature", "properties": {"norad_id": 34909, "name": "COSMOS 2251 DEB", "group": "cosmos-2251-debris", "lat": 48.15083651865949, "lon": 78.52894662720179, "alt_km": 678.1085078574151, "timestamp": "2025-12-21T05:44:51.982829+00:00", "meta": {"OBJECT_NAME": "COSMOS 2251 DEB", "OBJECT_ID": "1993-036ADE", "EPOCH": "2025-12-19T21:01:21.584064", "MEAN_MOTION": 14.77890246, "ECCENTRICITY": 0.0084047, "INCLINATION": 74.0147, "RA_OF_ASC_NODE": 62.542, "ARG_OF_PERICENTER": 196.7098, "MEAN_ANOMALY": 163.1306, "EPHEMERIS_TYPE": 0, "CLASSIFICATION_TYPE": "U", "NORAD_CAT_ID": 34909, "ELEMENT_SET_NO": 999, "REV_AT_EPOCH": 66957, "BSTAR": 0.00035617, "MEAN_MOTION_DOT": 2.682e-05, "MEAN_MOTION_DDOT": 0}, "tle": {"line1": "1 34909U 93036ADE 25353.87594426  .00002682  00000+0  35617-3 0  9991", "line2": "2 34909  74.0147  62.5420 0084047 196.7098 163.1306 14.77890246669573"}}, "geometry": {"type": "Point", "coordinates": [78.52894662720179, 48.15083651865949]}}]}